{"type": "FeatureCollection", "features": [ {"type": "Feature", "properties": {"norad_id": 54234, "name": "NOAA 21 (JPSS-2)", "group": "weather", "lat": 58.74274870003475, "lon": 117.48814992166444, "alt_km": 821.0177946850108, "timestamp": "2025-12-12T11:38:31.059418+00:00", "meta": {"OBJECT_NAME": "NOAA 21 (JPSS-2)", "OBJECT_ID": "2022-150A", "EPOCH": "2025-12-12T02:37:12.662976", "MEAN_MOTION": 14.19524032, "ECCENTRICITY": 0.0002244, "INCLINATION": 98.7461, "RA_OF_ASC_NODE": 282.4253, "ARG_OF_PERICENTER": 39.3962, "MEAN_ANOMALY": 320.7377, "EPHEMERIS_TYPE": 0, "CLASSIFICATION_TYPE": "U", "NORAD_CAT_ID": 54234, "ELEMENT_SET_NO": 999, "REV_AT_EPOCH": 16000, "BSTAR": 0.00010171, "MEAN_MOTION_DOT": 1.7e-06, "MEAN_MOTION_DDOT": 0}, "tle": {"line1": "1 54234U 22150A   25346.10917434  .00000170  00000+0  10171-3 0  9997", "line2": "2 54234  98.7461 282.4253 0002244  39.3962 320.7377 14.19524032160002"}}, "geometry": {"type": "Point", "coordinates": [117.48814992166444, 58.74274870003475]}}, {"type": "Feature", "properties": {"norad_id": 54743, "name": "METEOSAT-12 (MTG-I1)", "group": "weather", "lat": -0.5610681282860249, "lon": -104.19996631651496, "alt_km": 35779.576463039724, "timestamp": "2025-12-12T11:38:31.059432+00:00", "meta": {"OBJECT_NAME": "METEOSAT-12 (MTG-I1)", "OBJECT_ID": "2022-170C", "EPOCH": "2025-12-12T03:12:23.587776", "MEAN_MOTION": 1.00268849, "ECCENTRICITY": 0.0001751, "INCLINATION": 0.6862, "RA_OF_ASC_NODE": 23.5037, "ARG_OF_PERICENTER": 236.924, "MEAN_ANOMALY": 228.5072, "EPHEMERIS_TYPE": 0, "CLASSIFICATION_TYPE": "U", "NORAD_CAT_ID": 54743, "ELEMENT_SET_NO": 999, "REV_AT_EPOCH": 1110, "BSTAR": 0, "MEAN_MOTION_DOT": 2e-08, "MEAN_MOTION_DDOT": 0}, "tle": {"line1": "1 54743U 22170C   25346.13360634  .00000002  00000+0  00000+0 0  9991", "line2": "2 54743   0.6862  23.5037 0001751 236.9240 228.5072  1.00268849 11104"}}, "geometry": {"type": "Point", "coordinates": [-104.19996631651496, -0.5610681282860249]}}, {"type": "Feature", "properties": {"norad_id": 55973, "name": "TIANMU-1 03", "group": "weather", "lat": -64.38457729244035, "lon": 165.1027215548582, "alt_km": 452.48366525338224, "timestamp": "2025-12-12T11:38:31.059444+00:00", "meta": {"OBJECT_NAME": "TIANMU-1 03", "OBJECT_ID": "2023-039A", "EPOCH": "2025-12-12T04:07:58.402272", "MEAN_MOTION": 15.40897103, "ECCENTRICITY": 0.0004434, "INCLINATION": 97.5109, "RA_OF_ASC_NODE": 148.8079, "ARG_OF_PERICENTER": 62.7354, "MEAN_ANOMALY": 297.4343, "EPHEMERIS_TYPE": 0, "CLASSIFICATION_TYPE": "U", "NORAD_CAT_ID": 55973, "ELEMENT_SET_NO": 999, "REV_AT_EPOCH": 15197, "BSTAR": 0.00052542, "MEAN_MOTION_DOT": 0.00021544, "MEAN_MOTION_DDOT": 0}, "tle": {"line1": "1 55973U 23039A   25346.17220373  .00021544  00000+0  52542-3 0  9997", "line2": "2 55973  97.5109 148.8079 0004434  62.7354 297.4343 15.40897103151974"}}, "geometry": {"type": "Point", "coordinates": [165.1027215548582, -64.38457729244035]}}, {"type": "Feature", "properties": {"norad_id": 55974, "name": "TIANMU-1 04", "group": "weather", "lat": 47.68013447439357, "lon": 139.9968444196946, "alt_km": 434.8033650865955, "timestamp": "2025-12-12T11:38:31.059454+00:00", "meta": {"OBJECT_NAME": "TIANMU-1 04", "OBJECT_ID": "2023-039B", "EPOCH": "2025-12-12T03:38:33.385920", "MEAN_MOTION": 15.41232671, "ECCENTRICITY": 0.00051, "INCLINATION": 97.5041, "RA_OF_ASC_NODE": 147.9782, "ARG_OF_PERICENTER": 57.6013, "MEAN_ANOMALY": 302.5726, "EPHEMERIS_TYPE": 0, "CLASSIFICATION_TYPE": "U", "NORAD_CAT_ID": 55974, "ELEMENT_SET_NO": 999, "REV_AT_EPOCH": 15197, "BSTAR": 0.00053965, "MEAN_MOTION_DOT": 0.00022382, "MEAN_MOTION_DDOT": 0}, "tle": {"line1": "1 55974U 23039B   25346.15177530  .00022382  00000+0  53965-3 0  9993", "line2": "2 55974  97.5041 147.9782 0005100  57.6013 302.5726 15.41232671151974"}}, "geometry": {"type": "Point", "coordinates": [139.9968444196946, 47.68013447439357]}}, {"type": "Feature", "properties": {"norad_id": 55975, "name": "TIANMU-1 05", "group": "weather", "lat": 77.94210259841576, "lon": 110.68097835312196, "alt_km": 433.27679487943806, "timestamp": "2025-12-12T11:38:31.059465+00:00", "meta": {"OBJECT_NAME": "TIANMU-1 05", "OBJECT_ID": "2023-039C", "EPOCH": "2025-12-12T05:03:34.636320", "MEAN_MOTION": 15.40856591, "ECCENTRICITY": 0.0004375, "INCLINATION": 97.5087, "RA_OF_ASC_NODE": 148.5312, "ARG_OF_PERICENTER": 79.5086, "MEAN_ANOMALY": 280.6653, "EPHEMERIS_TYPE": 0, "CLASSIFICATION_TYPE": "U", "NORAD_CAT_ID": 55975, "ELEMENT_SET_NO": 999, "REV_AT_EPOCH": 15196, "BSTAR": 0.00054761, "MEAN_MOTION_DOT": 0.0002243, "MEAN_MOTION_DDOT": 0}, "tle": {"line1": "1 55975U 23039C   25346.21081755  .00022430  00000+0  54761-3 0  9993", "line2": "2 55975  97.5087 148.5312 0004375  79.5086 280.6653 15.40856591151963"}}, "geometry": {"type": "Point", "coordinates": [110.68097835312196, 77.94210259841576]}}, {"type": "Feature", "properties": {"norad_id": 55976, "name": "TIANMU-1 06", "group": "weather", "lat": 35.723298894386346, "lon": 143.8335843670456, "alt_km": 437.3954591024485, "timestamp": "2025-12-12T11:38:31.059475+00:00", "meta": {"OBJECT_NAME": "TIANMU-1 06", "OBJECT_ID": "2023-039D", "EPOCH": "2025-12-12T03:41:42.996768", "MEAN_MOTION": 15.41284966, "ECCENTRICITY": 0.0004666, "INCLINATION": 97.5099, "RA_OF_ASC_NODE": 148.9374, "ARG_OF_PERICENTER": 74.8897, "MEAN_ANOMALY": 285.2865, "EPHEMERIS_TYPE": 0, "CLASSIFICATION_TYPE": "U", "NORAD_CAT_ID": 55976, "ELEMENT_SET_NO": 999, "REV_AT_EPOCH": 15197, "BSTAR": 0.00054088, "MEAN_MOTION_DOT": 0.00022471, "MEAN_MOTION_DDOT": 0}, "tle": {"line1": "1 55976U 23039D   25346.15396987  .00022471  00000+0  54088-3 0  9990", "line2": "2 55976  97.5099 148.9374 0004666  74.8897 285.2865 15.41284966151979"}}, "geometry": {"type": "Point", "coordinates": [143.8335843670456, 35.723298894386346]}}, {"type": "Feature", "properties": {"norad_id": 56232, "name": "FENGYUN 3G", "group": "weather", "lat": 48.529678206402835, "lon": -23.097071634844085, "alt_km": 394.88727214633764, "timestamp": "2025-12-12T11:38:31.059487+00:00", "meta": {"OBJECT_NAME": "FENGYUN 3G", "OBJECT_ID": "2023-055A", "EPOCH": "2025-12-12T03:29:14.661312", "MEAN_MOTION": 15.5359009, "ECCENTRICITY": 0.0009271, "INCLINATION": 49.9933, "RA_OF_ASC_NODE": 230.5224, "ARG_OF_PERICENTER": 145.743, "MEAN_ANOMALY": 214.4138, "EPHEMERIS_TYPE": 0, "CLASSIFICATION_TYPE": "U", "NORAD_CAT_ID": 56232, "ELEMENT_SET_NO": 999, "REV_AT_EPOCH": 15093, "BSTAR": 0.00066365, "MEAN_MOTION_DOT": 0.00042972, "MEAN_MOTION_DDOT": 0}, "tle": {"line1": "1 56232U 23055A   25346.14530858  .00042972  00000+0  66365-3 0  9999", "line2": "2 56232  49.9933 230.5224 0009271 145.7430 214.4138 15.53590090150936"}}, "geometry": {"type": "Point", "coordinates": [-23.097071634844085, 48.529678206402835]}}, {"type": "Feature", "properties": {"norad_id": 57166, "name": "METEOR-M2 3", "group": "weather", "lat": 22.139414068230245, "lon": 36.483001539132516, "alt_km": 808.6795502668338, "timestamp": "2025-12-12T11:38:31.059498+00:00", "meta": {"OBJECT_NAME": "METEOR-M2 3", "OBJECT_ID": "2023-091A", "EPOCH": "2025-12-12T04:47:30.744096", "MEAN_MOTION": 14.24025993, "ECCENTRICITY": 0.0003936, "INCLINATION": 98.6379, "RA_OF_ASC_NODE": 39.7484, "ARG_OF_PERICENTER": 10.3709, "MEAN_ANOMALY": 349.7551, "EPHEMERIS_TYPE": 0, "CLASSIFICATION_TYPE": "U", "NORAD_CAT_ID": 57166, "ELEMENT_SET_NO": 999, "REV_AT_EPOCH": 12790, "BSTAR": 2.8948e-05, "MEAN_MOTION_DOT": 2.3e-07, "MEAN_MOTION_DDOT": 0}, "tle": {"line1": "1 57166U 23091A   25346.19966139  .00000023  00000+0  28948-4 0  9993", "line2": "2 57166  98.6379  39.7484 0003936  10.3709 349.7551 14.24025993127907"}}, "geometry": {"type": "Point", "coordinates": [36.483001539132516, 22.139414068230245]}}, {"type": "Feature", "properties": {"norad_id": 57399, "name": "TIANMU-1 07", "group": "weather", "lat": 64.60667996484473, "lon": -128.01920017425448, "alt_km": 472.06040503459826, "timestamp": "2025-12-12T11:38:31.059508+00:00", "meta": {"OBJECT_NAME": "TIANMU-1 07", "OBJECT_ID": "2023-101A", "EPOCH": "2025-12-12T04:51:26.023392", "MEAN_MOTION": 15.28060393, "ECCENTRICITY": 0.0005623, "INCLINATION": 97.2879, "RA_OF_ASC_NODE": 36.0637, "ARG_OF_PERICENTER": 83.0609, "MEAN_ANOMALY": 277.127, "EPHEMERIS_TYPE": 0, "CLASSIFICATION_TYPE": "U", "NORAD_CAT_ID": 57399, "ELEMENT_SET_NO": 999, "REV_AT_EPOCH": 13307, "BSTAR": 0.00040583, "MEAN_MOTION_DOT": 0.00011043, "MEAN_MOTION_DDOT": 0}, "tle": {"line1": "1 57399U 23101A   25346.20238453  .00011043  00000+0  40583-3 0  9998", "line2": "2 57399  97.2879  36.0637 0005623  83.0609 277.1270 15.28060393133071"}}, "geometry": {"type": "Point", "coordinates": [-128.01920017425448, 64.60667996484473]}}, {"type": "Feature", "properties": {"norad_id": 57400, "name": "TIANMU-1 08", "group": "weather", "lat": -63.11153973105002, "lon": 50.75475566610767, "alt_km": 493.26591177888804, "timestamp": "2025-12-12T11:38:31.059519+00:00", "meta": {"OBJECT_NAME": "TIANMU-1 08", "OBJECT_ID": "2023-101B", "EPOCH": "2025-12-12T04:03:49.667040", "MEAN_MOTION": 15.28042482, "ECCENTRICITY": 0.0007518, "INCLINATION": 97.2868, "RA_OF_ASC_NODE": 35.8296, "ARG_OF_PERICENTER": 85.5265, "MEAN_ANOMALY": 274.6833, "EPHEMERIS_TYPE": 0, "CLASSIFICATION_TYPE": "U", "NORAD_CAT_ID": 57400, "ELEMENT_SET_NO": 999, "REV_AT_EPOCH": 13306, "BSTAR": 0.0004173, "MEAN_MOTION_DOT": 0.00011356, "MEAN_MOTION_DDOT": 0}, "tle": {"line1": "1 57400U 23101B   25346.16932485  .00011356  00000+0  41730-3 0  9994", "line2": "2 57400  97.2868  35.8296 0007518  85.5265 274.6833 15.28042482133065"}}, "geometry": {"type": "Point", "coordinates": [50.75475566610767, -63.11153973105002]}}]}